{"type": "FeatureCollection", "features": [ {"type": "Feature", "properties": {"norad_id": 34375, "name": "IRIDIUM 33 DEB", "group": "iridium-33-debris", "lat": -6.765948296199608, "lon": 6.514155807382852, "alt_km": 774.2185897467443, "timestamp": "2025-12-04T07:39:36.517222+00:00", "meta": {"OBJECT_NAME": "IRIDIUM 33 DEB", "OBJECT_ID": "1997-051FT", "EPOCH": "2025-12-03T01:02:45.120192", "MEAN_MOTION": 14.17964565, "ECCENTRICITY": 0.01024686, "INCLINATION": 86.4333, "RA_OF_ASC_NODE": 186.6042, "ARG_OF_PERICENTER": 157.2608, "MEAN_ANOMALY": 1.3107, "EPHEMERIS_TYPE": 0, "CLASSIFICATION_TYPE": "U", "NORAD_CAT_ID": 34375, "ELEMENT_SET_NO": 999, "REV_AT_EPOCH": 86574, "BSTAR": 0.00052219187, "MEAN_MOTION_DOT": 1.144e-05, "MEAN_MOTION_DDOT": 0}, "tle": {"line1": "1 34375U 97051FT  25337.04357778  .00001144  00000+0  52219-3 0  9996", "line2": "2 34375  86.4333 186.6042 0102468 157.2608   1.3107 14.17964565865748"}}, "geometry": {"type": "Point", "coordinates": [6.514155807382852, -6.765948296199608]}}, {"type": "Feature", "properties": {"norad_id": 34376, "name": "IRIDIUM 33 DEB", "group": "iridium-33-debris", "lat": -67.93700038682717, "lon": 1.1366044588447854, "alt_km": 694.8687694402661, "timestamp": "2025-12-04T07:39:36.517235+00:00", "meta": {"OBJECT_NAME": "IRIDIUM 33 DEB", "OBJECT_ID": "1997-051FU", "EPOCH": "2025-12-03T20:28:37.375104", "MEAN_MOTION": 14.62362508, "ECCENTRICITY": 0.0026132, "INCLINATION": 86.2992, "RA_OF_ASC_NODE": 10.5349, "ARG_OF_PERICENTER": 197.0147, "MEAN_ANOMALY": 163.0191, "EPHEMERIS_TYPE": 0, "CLASSIFICATION_TYPE": "U", "NORAD_CAT_ID": 34376, "ELEMENT_SET_NO": 999, "REV_AT_EPOCH": 87877, "BSTAR": 0.0029364569, "MEAN_MOTION_DOT": 0.00014948, "MEAN_MOTION_DDOT": 0}, "tle": {"line1": "1 34376U 97051FU  25337.85321036  .00014948  00000+0  29365-2 0  9995", "line2": "2 34376  86.2992  10.5349 0026132 197.0147 163.0191 14.62362508878771"}}, "geometry": {"type": "Point", "coordinates": [1.1366044588447854, -67.93700038682717]}}, {"type": "Feature", "properties": {"norad_id": 34486, "name": "IRIDIUM 33 DEB", "group": "iridium-33-debris", "lat": -48.389307583094016, "lon": -160.018799307764, "alt_km": 588.5653062916836, "timestamp": "2025-12-04T07:39:36.517245+00:00", "meta": {"OBJECT_NAME": "IRIDIUM 33 DEB", "OBJECT_ID": "1997-051GB", "EPOCH": "2025-12-03T10:02:24.254592", "MEAN_MOTION": 14.95105578, "ECCENTRICITY": 0.00129251, "INCLINATION": 86.3945, "RA_OF_ASC_NODE": 16.3253, "ARG_OF_PERICENTER": 143.3156, "MEAN_ANOMALY": 279.4709, "EPHEMERIS_TYPE": 0, "CLASSIFICATION_TYPE": "U", "NORAD_CAT_ID": 34486, "ELEMENT_SET_NO": 999, "REV_AT_EPOCH": 88847, "BSTAR": 0.0028184465, "MEAN_MOTION_DOT": 0.00031064, "MEAN_MOTION_DDOT": 0}, "tle": {"line1": "1 34486U 97051GB  25337.41833628  .00031064  00000+0  28184-2 0  9990", "line2": "2 34486  86.3945  16.3253 0012925 143.3156 279.4709 14.95105578888472"}}, "geometry": {"type": "Point", "coordinates": [-160.018799307764, -48.389307583094016]}}, {"type": "Feature", "properties": {"norad_id": 34487, "name": "IRIDIUM 33 DEB", "group": "iridium-33-debris", "lat": 26.221588154172995, "lon": 17.807031768187226, "alt_km": 761.2497432591899, "timestamp": "2025-12-04T07:39:36.517254+00:00", "meta": {"OBJECT_NAME": "IRIDIUM 33 DEB", "OBJECT_ID": "1997-051GC", "EPOCH": "2025-12-03T10:12:00.081216", "MEAN_MOTION": 14.43196495, "ECCENTRICITY": 0.00319082, "INCLINATION": 86.3443, "RA_OF_ASC_NODE": 16.3873, "ARG_OF_PERICENTER": 157.9365, "MEAN_ANOMALY": 266.0119, "EPHEMERIS_TYPE": 0, "CLASSIFICATION_TYPE": "U", "NORAD_CAT_ID": 34487, "ELEMENT_SET_NO": 999, "REV_AT_EPOCH": 88114, "BSTAR": 0.00029137047, "MEAN_MOTION_DOT": 1.005e-05, "MEAN_MOTION_DDOT": 0}, "tle": {"line1": "1 34487U 97051GC  25337.42500094  .00001005  00000+0  29137-3 0  9992", "line2": "2 34487  86.3443  16.3873 0031908 157.9365 266.0119 14.43196495881144"}}, "geometry": {"type": "Point", "coordinates": [17.807031768187226, 26.221588154172995]}}, {"type": "Feature", "properties": {"norad_id": 34488, "name": "IRIDIUM 33 DEB", "group": "iridium-33-debris", "lat": -49.434455053638835, "lon": -54.33122156244252, "alt_km": 497.8280770929805, "timestamp": "2025-12-04T07:39:36.517263+00:00", "meta": {"OBJECT_NAME": "IRIDIUM 33 DEB", "OBJECT_ID": "1997-051GD", "EPOCH": "2025-12-03T16:08:28.295808", "MEAN_MOTION": 15.26132536, "ECCENTRICITY": 0.0015614, "INCLINATION": 86.3246, "RA_OF_ASC_NODE": 310.2938, "ARG_OF_PERICENTER": 65.1971, "MEAN_ANOMALY": 295.0897, "EPHEMERIS_TYPE": 0, "CLASSIFICATION_TYPE": "U", "NORAD_CAT_ID": 34488, "ELEMENT_SET_NO": 999, "REV_AT_EPOCH": 89101, "BSTAR": 0.0060111041, "MEAN_MOTION_DOT": 0.00158686, "MEAN_MOTION_DDOT": 0}, "tle": {"line1": "1 34488U 97051GD  25337.67254972  .00158686  00000+0  60111-2 0  9995", "line2": "2 34488  86.3246 310.2938 0015614  65.1971 295.0897 15.26132536891013"}}, "geometry": {"type": "Point", "coordinates": [-54.33122156244252, -49.434455053638835]}}, {"type": "Feature", "properties": {"norad_id": 34492, "name": "IRIDIUM 33 DEB", "group": "iridium-33-debris", "lat": -67.90902843681047, "lon": -30.711225681757636, "alt_km": 691.7300900576538, "timestamp": "2025-12-04T07:39:36.517272+00:00", "meta": {"OBJECT_NAME": "IRIDIUM 33 DEB", "OBJECT_ID": "1997-051GH", "EPOCH": "2025-12-03T10:48:32.344704", "MEAN_MOTION": 14.25280236, "ECCENTRICITY": 0.0190283, "INCLINATION": 86.4711, "RA_OF_ASC_NODE": 338.3846, "ARG_OF_PERICENTER": 268.3385, "MEAN_ANOMALY": 247.4972, "EPHEMERIS_TYPE": 0, "CLASSIFICATION_TYPE": "U", "NORAD_CAT_ID": 34492, "ELEMENT_SET_NO": 999, "REV_AT_EPOCH": 84926, "BSTAR": 0.008581153, "MEAN_MOTION_DOT": 0.00024475, "MEAN_MOTION_DDOT": 0}, "tle": {"line1": "1 34492U 97051GH  25337.45037436  .00024475  00000+0  85812-2 0  9993", "line2": "2 34492  86.4711 338.3846 0190283 268.3385 247.4972 14.25280236849261"}}, "geometry": {"type": "Point", "coordinates": [-30.711225681757636, -67.90902843681047]}}, {"type": "Feature", "properties": {"norad_id": 34497, "name": "IRIDIUM 33 DEB", "group": "iridium-33-debris", "lat": 66.56197354259585, "lon": -132.63640970325048, "alt_km": 809.5214622485364, "timestamp": "2025-12-04T07:39:36.517282+00:00", "meta": {"OBJECT_NAME": "IRIDIUM 33 DEB", "OBJECT_ID": "1997-051GN", "EPOCH": "2025-12-03T06:10:51.201984", "MEAN_MOTION": 14.27408211, "ECCENTRICITY": 0.0079856, "INCLINATION": 86.2784, "RA_OF_ASC_NODE": 56.4516, "ARG_OF_PERICENTER": 10.3771, "MEAN_ANOMALY": 49.8757, "EPHEMERIS_TYPE": 0, "CLASSIFICATION_TYPE": "U", "NORAD_CAT_ID": 34497, "ELEMENT_SET_NO": 999, "REV_AT_EPOCH": 86748, "BSTAR": 0.00083815, "MEAN_MOTION_DOT": 2.144e-05, "MEAN_MOTION_DDOT": 0}, "tle": {"line1": "1 34497U 97051GN  25337.25753706  .00002144  00000+0  83815-3 0  9992", "line2": "2 34497  86.2784  56.4516 0079856  10.3771  49.8757 14.27408211867488"}}, "geometry": {"type": "Point", "coordinates": [-132.63640970325048, 66.56197354259585]}}, {"type": "Feature", "properties": {"norad_id": 34508, "name": "IRIDIUM 33 DEB", "group": "iridium-33-debris", "lat": -59.76561964397595, "lon": 99.95859273944762, "alt_km": 779.0541782636137, "timestamp": "2025-12-04T07:39:36.517290+00:00", "meta": {"OBJECT_NAME": "IRIDIUM 33 DEB", "OBJECT_ID": "1997-051GZ", "EPOCH": "2025-12-03T18:34:58.618848", "MEAN_MOTION": 14.38282153, "ECCENTRICITY": 0.0065497, "INCLINATION": 86.3699, "RA_OF_ASC_NODE": 106.4429, "ARG_OF_PERICENTER": 202.0722, "MEAN_ANOMALY": 157.7654, "EPHEMERIS_TYPE": 0, "CLASSIFICATION_TYPE": "U", "NORAD_CAT_ID": 34508, "ELEMENT_SET_NO": 999, "REV_AT_EPOCH": 87180, "BSTAR": 0.002633055, "MEAN_MOTION_DOT": 8.231e-05, "MEAN_MOTION_DDOT": 0}, "tle": {"line1": "1 34508U 97051GZ  25337.77428957  .00008231  00000+0  26331-2 0  9991", "line2": "2 34508  86.3699 106.4429 0065497 202.0722 157.7654 14.38282153871801"}}, "geometry": {"type": "Point", "coordinates": [99.95859273944762, -59.76561964397595]}}, {"type": "Feature", "properties": {"norad_id": 34521, "name": "IRIDIUM 33 DEB", "group": "iridium-33-debris", "lat": 81.3645103437364, "lon": 58.88223284622558, "alt_km": 676.0921996053839, "timestamp": "2025-12-04T07:39:36.517300+00:00", "meta": {"OBJECT_NAME": "IRIDIUM 33 DEB", "OBJECT_ID": "1997-051HN", "EPOCH": "2025-12-03T14:52:24.138048", "MEAN_MOTION": 14.63228778, "ECCENTRICITY": 0.00011177, "INCLINATION": 86.3812, "RA_OF_ASC_NODE": 34.5626, "ARG_OF_PERICENTER": 291.1888, "MEAN_ANOMALY": 68.9204, "EPHEMERIS_TYPE": 0, "CLASSIFICATION_TYPE": "U", "NORAD_CAT_ID": 34521, "ELEMENT_SET_NO": 999, "REV_AT_EPOCH": 88339, "BSTAR": 0.0014436167, "MEAN_MOTION_DOT": 7.457e-05, "MEAN_MOTION_DDOT": 0}, "tle": {"line1": "1 34521U 97051HN  25337.61972382  .00007457  00000+0  14436-2 0  9997", "line2": "2 34521  86.3812  34.5626 0001117 291.1888  68.9204 14.63228778883396"}}, "geometry": {"type": "Point", "coordinates": [58.88223284622558, 81.3645103437364]}}, {"type": "Feature", "properties": {"norad_id": 34525, "name": "IRIDIUM 33 DEB", "group": "iridium-33-debris", "lat": 20.524729466552262, "lon": -130.922906312905, "alt_km": 745.8833573252941, "timestamp": "2025-12-04T07:39:36.517309+00:00", "meta": {"OBJECT_NAME": "IRIDIUM 33 DEB", "OBJECT_ID": "1997-051HS", "EPOCH": "2025-12-03T12:55:13.156608", "MEAN_MOTION": 14.42867525, "ECCENTRICITY": 0.00064393, "INCLINATION": 86.3737, "RA_OF_ASC_NODE": 50.7706, "ARG_OF_PERICENTER": 116.2069, "MEAN_ANOMALY": 309.7811, "EPHEMERIS_TYPE": 0, "CLASSIFICATION_TYPE": "U", "NORAD_CAT_ID": 34525, "ELEMENT_SET_NO": 999, "REV_AT_EPOCH": 87955, "BSTAR": 0.00057232393, "MEAN_MOTION_DOT": 1.93e-05, "MEAN_MOTION_DDOT": 0}, "tle": {"line1": "1 34525U 97051HS  25337.53834672  .00001930  00000+0  57232-3 0  9993", "line2": "2 34525  86.3737  50.7706 0006439 116.2069 309.7811 14.42867525879554"}}, "geometry": {"type": "Point", "coordinates": [-130.922906312905, 20.524729466552262]}}]}